{"fetched_at":"2026-07-13T07:48:28.639Z","source":"https://celestrak.org/NORAD/elements/gp.php?NAME=JILIN&FORMAT=JSON","constellation":"jilin-1-gaofen","records":[{"OBJECT_NAME":"JILIN-1 GAOFEN 03D51","OBJECT_ID":"2022-155B","EPOCH":"2026-07-12T21:23:54.328128","CLASSIFICATION_TYPE":"U","MEAN_MOTION":15.64693476,"ECCENTRICITY":0.0004255,"INCLINATION":97.6247,"RA_OF_ASC_NODE":340.7271,"ARG_OF_PERICENTER":240.0317,"MEAN_ANOMALY":120.0519,"EPHEMERIS_TYPE":0,"NORAD_CAT_ID":54252,"ELEMENT_SET_NO":999,"REV_AT_EPOCH":20376,"BSTAR":0.00049036,"MEAN_MOTION_DOT":0.00047589,"MEAN_MOTION_DDOT":0},{"OBJECT_NAME":"JILIN-1 GAOFEN 03D53","OBJECT_ID":"2022-155C","EPOCH":"2026-07-12T20:30:38.931264","CLASSIFICATION_TYPE":"U","MEAN_MOTION":15.5432088,"ECCENTRICITY":0.0004816,"INCLINATION":97.624,"RA_OF_ASC_NODE":335.9282,"ARG_OF_PERICENTER":261.2819,"MEAN_ANOMALY":98.7888,"EPHEMERIS_TYPE":0,"NORAD_CAT_ID":54253,"ELEMENT_SET_NO":999,"REV_AT_EPOCH":20347,"BSTAR":0.00040602,"MEAN_MOTION_DOT":0.0002651,"MEAN_MOTION_DDOT":0},{"OBJECT_NAME":"JILIN-1 GAOFEN 03D52","OBJECT_ID":"2022-155E","EPOCH":"2026-07-12T21:01:04.321344","CLASSIFICATION_TYPE":"U","MEAN_MOTION":15.61888771,"ECCENTRICITY":0.0003589,"INCLINATION":97.6221,"RA_OF_ASC_NODE":338.9323,"ARG_OF_PERICENTER":256.391,"MEAN_ANOMALY":103.6948,"EPHEMERIS_TYPE":0,"NORAD_CAT_ID":54255,"ELEMENT_SET_NO":999,"REV_AT_EPOCH":20371,"BSTAR":0.00048015,"MEAN_MOTION_DOT":0.00041727,"MEAN_MOTION_DDOT":0},{"OBJECT_NAME":"JILIN-1 GAOFEN 03D50","OBJECT_ID":"2022-167J","EPOCH":"2026-07-12T21:09:46.107360","CLASSIFICATION_TYPE":"U","MEAN_MOTION":15.35032574,"ECCENTRICITY":0.0005413,"INCLINATION":97.6844,"RA_OF_ASC_NODE":2.787,"ARG_OF_PERICENTER":29.1025,"MEAN_ANOMALY":331.0518,"EPHEMERIS_TYPE":0,"NORAD_CAT_ID":54690,"ELEMENT_SET_NO":999,"REV_AT_EPOCH":19929,"BSTAR":0.00022043,"MEAN_MOTION_DOT":0.00007409,"MEAN_MOTION_DDOT":0},{"OBJECT_NAME":"JILIN-1 GAOFEN 03D47","OBJECT_ID":"2022-167L","EPOCH":"2026-07-12T19:39:54.591840","CLASSIFICATION_TYPE":"U","MEAN_MOTION":15.34314417,"ECCENTRICITY":0.0007991,"INCLINATION":97.694,"RA_OF_ASC_NODE":4.4596,"ARG_OF_PERICENTER":37.1864,"MEAN_ANOMALY":322.993,"EPHEMERIS_TYPE":0,"NORAD_CAT_ID":54692,"ELEMENT_SET_NO":999,"REV_AT_EPOCH":19927,"BSTAR":0.00020767,"MEAN_MOTION_DOT":0.0000682,"MEAN_MOTION_DDOT":0},{"OBJECT_NAME":"JILIN-1 GAOFEN 03D49","OBJECT_ID":"2022-167N","EPOCH":"2026-07-12T20:10:37.939296","CLASSIFICATION_TYPE":"U","MEAN_MOTION":15.38007589,"ECCENTRICITY":0.0006206,"INCLINATION":97.6818,"RA_OF_ASC_NODE":5.1289,"ARG_OF_PERICENTER":56.4733,"MEAN_ANOMALY":303.7103,"EPHEMERIS_TYPE":0,"NORAD_CAT_ID":54694,"ELEMENT_SET_NO":999,"REV_AT_EPOCH":19943,"BSTAR":0.00023402,"MEAN_MOTION_DOT":0.00008667,"MEAN_MOTION_DDOT":0},{"OBJECT_NAME":"JILIN-1 GAOFEN 03D48","OBJECT_ID":"2022-167P","EPOCH":"2026-07-12T21:00:36.715680","CLASSIFICATION_TYPE":"U","MEAN_MOTION":15.35762932,"ECCENTRICITY":0.0006648,"INCLINATION":97.6889,"RA_OF_ASC_NODE":4.4971,"ARG_OF_PERICENTER":37.8115,"MEAN_ANOMALY":322.3594,"EPHEMERIS_TYPE":0,"NORAD_CAT_ID":54695,"ELEMENT_SET_NO":999,"REV_AT_EPOCH":19933,"BSTAR":0.00022865,"MEAN_MOTION_DOT":0.00007873,"MEAN_MOTION_DDOT":0},{"OBJECT_NAME":"JILIN GAOFEN OBJECT A","OBJECT_ID":"2026-080A","EPOCH":"2026-07-13T00:17:31.958880","CLASSIFICATION_TYPE":"U","MEAN_MOTION":15.09189243,"ECCENTRICITY":0.0011381,"INCLINATION":97.6615,"RA_OF_ASC_NODE":269.4933,"ARG_OF_PERICENTER":343.1565,"MEAN_ANOMALY":16.9284,"EPHEMERIS_TYPE":0,"NORAD_CAT_ID":68691,"ELEMENT_SET_NO":999,"REV_AT_EPOCH":1355,"BSTAR":0.00021234,"MEAN_MOTION_DOT":0.00003313,"MEAN_MOTION_DDOT":0},{"OBJECT_NAME":"JILIN GAOFEN OBJECT B","OBJECT_ID":"2026-080B","EPOCH":"2026-07-12T19:04:57.263808","CLASSIFICATION_TYPE":"U","MEAN_MOTION":15.0909382,"ECCENTRICITY":0.0014964,"INCLINATION":97.6595,"RA_OF_ASC_NODE":269.2921,"ARG_OF_PERICENTER":322.1972,"MEAN_ANOMALY":37.8205,"EPHEMERIS_TYPE":0,"NORAD_CAT_ID":68692,"ELEMENT_SET_NO":999,"REV_AT_EPOCH":1352,"BSTAR":0.0001676,"MEAN_MOTION_DOT":0.00002597,"MEAN_MOTION_DDOT":0},{"OBJECT_NAME":"JILIN GAOFEN OBJECT C","OBJECT_ID":"2026-080C","EPOCH":"2026-07-13T00:15:39.218976","CLASSIFICATION_TYPE":"U","MEAN_MOTION":15.09172584,"ECCENTRICITY":0.0012211,"INCLINATION":97.6598,"RA_OF_ASC_NODE":269.4765,"ARG_OF_PERICENTER":323.0944,"MEAN_ANOMALY":36.9443,"EPHEMERIS_TYPE":0,"NORAD_CAT_ID":68693,"ELEMENT_SET_NO":999,"REV_AT_EPOCH":1355,"BSTAR":0.00021711,"MEAN_MOTION_DOT":0.00003389,"MEAN_MOTION_DDOT":0},{"OBJECT_NAME":"JILIN GAOFEN OBJECT D","OBJECT_ID":"2026-080D","EPOCH":"2026-07-12T20:41:20.416704","CLASSIFICATION_TYPE":"U","MEAN_MOTION":15.08949785,"ECCENTRICITY":0.0016602,"INCLINATION":97.6659,"RA_OF_ASC_NODE":269.4311,"ARG_OF_PERICENTER":334.138,"MEAN_ANOMALY":25.9017,"EPHEMERIS_TYPE":0,"NORAD_CAT_ID":68694,"ELEMENT_SET_NO":999,"REV_AT_EPOCH":1351,"BSTAR":0.00016156,"MEAN_MOTION_DOT":0.00002492,"MEAN_MOTION_DDOT":0},{"OBJECT_NAME":"JILIN GAOFEN OBJECT E","OBJECT_ID":"2026-080E","EPOCH":"2026-07-12T20:15:34.402752","CLASSIFICATION_TYPE":"U","MEAN_MOTION":15.09240756,"ECCENTRICITY":0.0012653,"INCLINATION":97.6637,"RA_OF_ASC_NODE":269.4333,"ARG_OF_PERICENTER":345.7033,"MEAN_ANOMALY":14.3836,"EPHEMERIS_TYPE":0,"NORAD_CAT_ID":68695,"ELEMENT_SET_NO":999,"REV_AT_EPOCH":1349,"BSTAR":0.00017549,"MEAN_MOTION_DOT":0.00002732,"MEAN_MOTION_DDOT":0},{"OBJECT_NAME":"JILIN GAOFEN OBJECT F","OBJECT_ID":"2026-080F","EPOCH":"2026-07-12T20:14:04.871616","CLASSIFICATION_TYPE":"U","MEAN_MOTION":15.09205386,"ECCENTRICITY":0.0013746,"INCLINATION":97.6608,"RA_OF_ASC_NODE":269.4016,"ARG_OF_PERICENTER":351.5212,"MEAN_ANOMALY":8.5782,"EPHEMERIS_TYPE":0,"NORAD_CAT_ID":68696,"ELEMENT_SET_NO":999,"REV_AT_EPOCH":1349,"BSTAR":0.00017948,"MEAN_MOTION_DOT":0.00002793,"MEAN_MOTION_DDOT":0},{"OBJECT_NAME":"JILIN GAOFEN OBJECT G","OBJECT_ID":"2026-080G","EPOCH":"2026-07-12T19:54:03.358656","CLASSIFICATION_TYPE":"U","MEAN_MOTION":15.09191032,"ECCENTRICITY":0.0013628,"INCLINATION":97.6654,"RA_OF_ASC_NODE":269.4706,"ARG_OF_PERICENTER":344.4058,"MEAN_ANOMALY":15.6749,"EPHEMERIS_TYPE":0,"NORAD_CAT_ID":68697,"ELEMENT_SET_NO":999,"REV_AT_EPOCH":1349,"BSTAR":0.00023195,"MEAN_MOTION_DOT":0.00003628,"MEAN_MOTION_DDOT":0},{"OBJECT_NAME":"JILIN GAOFEN OBJECT H","OBJECT_ID":"2026-080H","EPOCH":"2026-07-10T15:20:06.898272","CLASSIFICATION_TYPE":"U","MEAN_MOTION":15.09105259,"ECCENTRICITY":0.00145489,"INCLINATION":97.6637,"RA_OF_ASC_NODE":267.2744,"ARG_OF_PERICENTER":353.5464,"MEAN_ANOMALY":6.5575,"EPHEMERIS_TYPE":0,"NORAD_CAT_ID":68698,"ELEMENT_SET_NO":999,"REV_AT_EPOCH":1316,"BSTAR":0.00021938544,"MEAN_MOTION_DOT":0.00003421,"MEAN_MOTION_DDOT":0}]}
