JILIN-1 GAOFEN 03D51    
1 54252U 22155B   26193.89160102  .00047589  00000+0  49036-3 0  9998
2 54252  97.6247 340.7271 0004255 240.0317 120.0519 15.64693476203769
JILIN-1 GAOFEN 03D53    
1 54253U 22155C   26193.85461726  .00026510  00000+0  40602-3 0  9992
2 54253  97.6240 335.9282 0004816 261.2819  98.7888 15.54320880203479
JILIN-1 GAOFEN 03D52    
1 54255U 22155E   26193.87574446  .00041727  00000+0  48015-3 0  9993
2 54255  97.6221 338.9323 0003589 256.3910 103.6948 15.61888771203718
JILIN-1 GAOFEN 03D50    
1 54690U 22167J   26193.88178365  .00007409  00000+0  22043-3 0  9992
2 54690  97.6844   2.7870 0005413  29.1025 331.0518 15.35032574199296
JILIN-1 GAOFEN 03D47    
1 54692U 22167L   26193.81938185  .00006820  00000+0  20767-3 0  9998
2 54692  97.6940   4.4596 0007991  37.1864 322.9930 15.34314417199275
JILIN-1 GAOFEN 03D49    
1 54694U 22167N   26193.84071689  .00008667  00000+0  23402-3 0  9990
2 54694  97.6818   5.1289 0006206  56.4733 303.7103 15.38007589199435
JILIN-1 GAOFEN 03D48    
1 54695U 22167P   26193.87542495  .00007873  00000+0  22865-3 0  9992
2 54695  97.6889   4.4971 0006648  37.8115 322.3594 15.35762932199338
JILIN GAOFEN OBJECT A   
1 68691U 26080A   26194.01217545  .00003313  00000+0  21234-3 0  9997
2 68691  97.6615 269.4933 0011381 343.1565  16.9284 15.09189243 13559
JILIN GAOFEN OBJECT B   
1 68692U 26080B   26193.79510722  .00002597  00000+0  16760-3 0  9996
2 68692  97.6595 269.2921 0014964 322.1972  37.8205 15.09093820 13528
JILIN GAOFEN OBJECT C   
1 68693U 26080C   26194.01087059  .00003389  00000+0  21711-3 0  9997
2 68693  97.6598 269.4765 0012211 323.0944  36.9443 15.09172584 13554
JILIN GAOFEN OBJECT D   
1 68694U 26080D   26193.86204186  .00002492  00000+0  16156-3 0  9993
2 68694  97.6659 269.4311 0016602 334.1380  25.9017 15.08949785 13510
JILIN GAOFEN OBJECT E   
1 68695U 26080E   26193.84414818  .00002732  00000+0  17549-3 0  9991
2 68695  97.6637 269.4333 0012653 345.7033  14.3836 15.09240756 13497
JILIN GAOFEN OBJECT F   
1 68696U 26080F   26193.84311194  .00002793  00000+0  17948-3 0  9995
2 68696  97.6608 269.4016 0013746 351.5212   8.5782 15.09205386 13497
JILIN GAOFEN OBJECT G   
1 68697U 26080G   26193.82920554  .00003628  00000+0  23195-3 0  9999
2 68697  97.6654 269.4706 0013628 344.4058  15.6749 15.09191032 13497
JILIN GAOFEN OBJECT H   
1 68698U 26080H   26191.63896873  .00003421  00000+0  21939-3 0  9998
2 68698  97.6637 267.2744 0014548 353.5464   6.5575 15.09105259 13167
